OBJECT_NAME,OBJECT_ID,EPOCH,MEAN_MOTION,ECCENTRICITY,INCLINATION,RA_OF_ASC_NODE,ARG_OF_PERICENTER,MEAN_ANOMALY,EPHEMERIS_TYPE,CLASSIFICATION_TYPE,NORAD_CAT_ID,ELEMENT_SET_NO,REV_AT_EPOCH,BSTAR,MEAN_MOTION_DOT,MEAN_MOTION_DDOT
INTELSAT 902 (IS-902),2001-039A,2026-06-10T04:16:38.639136,1.00272555,.00044925,6.1005,71.8686,3.2791,197.4467,0,U,26900,999,9062,0,-.268E-5,0
INTELSAT 904 (IS-904),2002-007A,2026-06-10T01:09:55.984896,1.00272517,.00066693,6.9013,69.2690,1.5212,173.6141,0,U,27380,999,5169,0,-.21E-5,0
DIRECTV 5 (TEMPO 1),2002-023A,2026-06-10T05:55:25.959936,1.00271489,.00032959,4.8592,75.3954,14.9716,146.9980,0,U,27426,999,8805,0,-.41E-6,0
INTELSAT 905 (IS-905),2002-027A,2026-06-09T15:10:28.661952,1.00270990,.00039454,6.7337,69.8895,15.6329,262.8880,0,U,27438,999,5128,0,.109E-5,0
GALAXY 3C (G-3C),2002-030A,2026-06-10T05:59:48.041376,1.00271370,.00016978,3.7123,78.0677,32.7701,142.8771,0,U,27445,999,4642,0,-.136E-5,0
INTELSAT 906 (IS-906),2002-041A,2026-06-10T05:02:32.475840,1.00271538,.00046633,5.7858,73.0072,359.9055,325.4249,0,U,27513,999,8695,0,.29E-6,0
GALAXY 13 (HORIZONS-1),2003-044A,2026-06-10T05:43:58.535616,1.00274107,.00021172,1.4022,83.9448,352.0703,118.5823,0,U,27954,999,4650,0,.15E-5,0
INTELSAT 10-02,2004-022A,2026-06-10T06:26:33.184896,1.00273655,.00003711,0.0141,328.0803,180.5937,205.5905,0,U,28358,999,8048,0,.7E-7,0
DIRECTV 8,2005-019A,2026-06-10T05:52:56.199360,1.00271736,.00029069,0.0166,23.8981,58.5854,145.3124,0,U,28659,999,7700,0,.19E-6,0
GALAXY 28 (G-28),2005-022A,2026-06-10T06:19:03.902304,1.00272086,.00028514,3.2816,79.0167,356.4782,250.7947,0,U,28702,999,5190,0,-.183E-5,0
GALAXY 16 (G-16),2006-023A,2026-06-10T05:58:33.161088,1.00271323,.00025797,0.0434,142.1338,298.8299,168.2900,0,U,29236,999,7290,0,-.109E-5,0
DIRECTV 9S,2006-043A,2026-06-10T05:57:55.719648,1.00271170,.00049618,2.4019,80.9843,8.2753,157.6491,0,U,29494,999,5131,0,-.96E-6,0
GALAXY 17 (G-17),2007-016B,2026-06-10T06:02:32.777664,1.00270954,.00048062,2.9537,79.9863,17.6904,166.5840,0,U,31307,999,6973,0,-.189E-5,0
INTELSAT 11 (IS-11),2007-044B,2026-06-10T05:28:44.995584,0.99053397,.00019864,3.5464,78.7522,86.0187,332.4247,0,U,32253,999,6838,0,-.253E-5,0
HORIZONS-2,2007-063B,2026-06-10T06:05:50.171424,1.00271044,.00038893,2.5833,80.7093,356.9271,198.6722,0,U,32388,999,6774,0,-.236E-5,0
DIRECTV 11,2008-013A,2026-06-10T05:58:33.161088,1.00269526,.00002226,0.0249,203.5284,205.7350,199.8088,0,U,32729,999,4552,0,-.108E-5,0
GALAXY 18 (G-18),2008-024A,2026-06-10T05:36:48.047616,1.00272596,.00031189,0.0185,314.8383,136.3675,128.5983,0,U,32951,999,4578,0,.42E-6,0
INTELSAT 25 (IS-25),2008-034A,2026-06-10T06:04:24.364128,0.99036402,.00029324,2.6906,80.4480,51.5561,10.2004,0,U,33153,999,6562,0,-.261E-5,0
GALAXY 19 (G-19),2008-045A,2026-06-10T05:59:10.600800,1.00270999,.00026601,0.0143,276.5624,162.2013,172.6541,0,U,33376,999,6483,0,-.122E-5,0
FM-5,2009-034A,2026-06-10T06:02:17.801952,1.00270729,.00006505,0.0177,292.3507,2.5315,328.1633,0,U,35493,999,4657,0,-.183E-5,0
INTELSAT 14 (IS-14),2009-064A,2026-06-10T06:13:56.892864,1.00269935,.00027286,0.0169,347.3526,109.3281,210.4327,0,U,36097,999,6053,0,-.256E-5,0
INTELSAT 15 (IS-15),2009-067A,2026-06-10T00:00:32.086368,1.00270903,.00022117,0.0173,350.1635,93.1197,260.3698,0,U,36106,999,4115,0,-.168E-5,0
DIRECTV 12,2009-075A,2026-06-10T05:57:33.255648,1.00268056,.00001094,0.0475,139.6915,293.2739,172.3119,0,U,36131,999,4648,0,-.85E-6,0
INTELSAT 16 (IS-16),2010-006A,2026-06-10T04:22:04.503648,1.00269377,.00021162,0.0078,326.7792,131.7596,149.3286,0,U,36397,999,5958,0,-.227E-5,0
XM-5,2010-053A,2026-06-10T05:53:56.103936,1.00269710,.00029721,0.0654,273.5303,284.6282,33.7382,0,U,37185,999,5741,0,-.5E-7,0
INTELSAT 17 (IS-17),2010-065B,2026-06-10T04:57:21.638016,1.00272773,.00025629,0.0101,119.8670,329.9016,309.1443,0,U,37238,999,5317,0,.16E-6,0
INTELSAT 28 (IS-28),2011-016A,2026-06-10T06:17:49.022016,1.00271780,.00037322,1.7874,82.7063,1.4267,237.2442,0,U,37392,999,5321,0,-.208E-5,0
INTELSAT 18 (IS-18),2011-056A,2026-06-09T21:02:14.758944,1.00272225,.00020989,0.0170,310.4216,144.0429,299.3507,0,U,37834,999,5373,0,.7E-6,0
INTELSAT 22 (IS-22),2012-011A,2026-06-10T04:47:21.647904,1.00270754,.00014542,0.0279,34.8691,59.1370,308.4708,0,U,38098,999,711,0,0,0
INTELSAT 19 (IS-19),2012-030A,2026-06-10T06:06:30.100320,1.00271799,.00029823,0.0166,345.1336,103.0564,68.0604,0,U,38356,999,5038,0,-.39E-6,0
INTELSAT 20 (IS-20),2012-043A,2026-06-10T04:57:09.637920,1.00259165,.00015817,0.0138,66.7289,64.7509,269.9036,0,U,38740,999,5067,0,-.5E-7,0
