INTELSAT 902 (IS-902)   
1 26900U 01039A   26161.17822499 -.00000268  00000+0  00000+0 0  9993
2 26900   6.1005  71.8686 0004492   3.2791 197.4467  1.00272555 90620
INTELSAT 904 (IS-904)   
1 27380U 02007A   26161.04856464 -.00000210  00000+0  00000+0 0  9994
2 27380   6.9013  69.2690 0006669   1.5212 173.6141  1.00272517 51690
DIRECTV 5 (TEMPO 1)     
1 27426U 02023A   26161.24682824 -.00000041  00000+0  00000+0 0  9994
2 27426   4.8592  75.3954 0003295  14.9716 146.9980  1.00271489 88051
INTELSAT 905 (IS-905)   
1 27438U 02027A   26160.63227618  .00000109  00000+0  00000+0 0  9993
2 27438   6.7337  69.8895 0003945  15.6329 262.8880  1.00270990 51282
GALAXY 3C (G-3C)        
1 27445U 02030A   26161.24986159 -.00000136  00000+0  00000+0 0  9996
2 27445   3.7123  78.0677 0001697  32.7701 142.8771  1.00271370 46425
INTELSAT 906 (IS-906)   
1 27513U 02041A   26161.21009810  .00000029  00000+0  00000+0 0  9991
2 27513   5.7858  73.0072 0004663 359.9055 325.4249  1.00271538 86951
GALAXY 13 (HORIZONS-1)  
1 27954U 03044A   26161.23887194  .00000150  00000+0  00000+0 0  9990
2 27954   1.4022  83.9448 0002117 352.0703 118.5823  1.00274107 46500
INTELSAT 10-02          
1 28358U 04022A   26161.26843964  .00000007  00000+0  00000+0 0  9997
2 28358   0.0141 328.0803 0000371 180.5937 205.5905  1.00273655 80487
DIRECTV 8               
1 28659U 05019A   26161.24509490  .00000019  00000+0  00000+0 0  9992
2 28659   0.0166  23.8981 0002906  58.5854 145.3124  1.00271736 77009
GALAXY 28 (G-28)        
1 28702U 05022A   26161.26323961 -.00000183  00000+0  00000+0 0  9997
2 28702   3.2816  79.0167 0002851 356.4782 250.7947  1.00272086 51907
GALAXY 16 (G-16)        
1 29236U 06023A   26161.24899492 -.00000109  00000+0  00000+0 0  9995
2 29236   0.0434 142.1338 0002579 298.8299 168.2900  1.00271323 72900
DIRECTV 9S              
1 29494U 06043A   26161.24856157 -.00000096  00000+0  00000+0 0  9999
2 29494   2.4019  80.9843 0004961   8.2753 157.6491  1.00271170 51315
GALAXY 17 (G-17)        
1 31307U 07016B   26161.25176826 -.00000189  00000+0  00000+0 0  9998
2 31307   2.9537  79.9863 0004806  17.6904 166.5840  1.00270954 69732
INTELSAT 11 (IS-11)     
1 32253U 07044B   26161.22829856 -.00000253  00000+0  00000+0 0  9997
2 32253   3.5464  78.7522 0001986  86.0187 332.4247  0.99053397 68389
HORIZONS-2              
1 32388U 07063B   26161.25405291 -.00000236  00000+0  00000+0 0  9994
2 32388   2.5833  80.7093 0003889 356.9271 198.6722  1.00271044 67743
DIRECTV 11              
1 32729U 08013A   26161.24899492 -.00000108  00000+0  00000+0 0  9996
2 32729   0.0249 203.5284 0000222 205.7350 199.8088  1.00269526 45522
GALAXY 18 (G-18)        
1 32951U 08024A   26161.23388944  .00000042  00000+0  00000+0 0  9995
2 32951   0.0185 314.8383 0003118 136.3675 128.5983  1.00272596 45782
INTELSAT 25 (IS-25)     
1 33153U 08034A   26161.25305977 -.00000261  00000+0  00000+0 0  9992
2 33153   2.6906  80.4480 0002932  51.5561  10.2004  0.99036402 65622
GALAXY 19 (G-19)        
1 33376U 08045A   26161.24942825 -.00000122  00000+0  00000+0 0  9995
2 33376   0.0143 276.5624 0002660 162.2013 172.6541  1.00270999 64837
FM-5                    
1 35493U 09034A   26161.25159493 -.00000183  00000+0  00000+0 0  9995
2 35493   0.0177 292.3507 0000650   2.5315 328.1633  1.00270729 46572
INTELSAT 14 (IS-14)     
1 36097U 09064A   26161.25968626 -.00000256  00000+0  00000+0 0  9996
2 36097   0.0169 347.3526 0002728 109.3281 210.4327  1.00269935 60534
INTELSAT 15 (IS-15)     
1 36106U 09067A   26161.00037137 -.00000168  00000+0  00000+0 0  9999
2 36106   0.0173 350.1635 0002211  93.1197 260.3698  1.00270903 41155
DIRECTV 12              
1 36131U 09075A   26161.24830157 -.00000085  00000+0  00000+0 0  9993
2 36131   0.0475 139.6915 0000109 293.2739 172.3119  1.00268056 46485
INTELSAT 16 (IS-16)     
1 36397U 10006A   26161.18199657 -.00000227  00000+0  00000+0 0  9997
2 36397   0.0078 326.7792 0002116 131.7596 149.3286  1.00269377 59588
XM-5                    
1 37185U 10053A   26161.24578824 -.00000005  00000+0  00000+0 0  9993
2 37185   0.0654 273.5303 0002972 284.6282  33.7382  1.00269710 57415
INTELSAT 17 (IS-17)     
1 37238U 10065B   26161.20650044  .00000016  00000+0  00000+0 0  9997
2 37238   0.0101 119.8670 0002562 329.9016 309.1443  1.00272773 53173
INTELSAT 28 (IS-28)     
1 37392U 11016A   26161.26237294 -.00000208  00000+0  00000+0 0  9993
2 37392   1.7874  82.7063 0003732   1.4267 237.2442  1.00271780 53215
INTELSAT 18 (IS-18)     
1 37834U 11056A   26160.87655971  .00000070  00000+0  00000+0 0  9996
2 37834   0.0170 310.4216 0002098 144.0429 299.3507  1.00272225 53739
INTELSAT 22 (IS-22)     
1 38098U 12011A   26161.19955611  .00000000  00000+0  00000+0 0  9994
2 38098   0.0279  34.8691 0001454  59.1370 308.4708  1.00270754  7113
INTELSAT 19 (IS-19)     
1 38356U 12030A   26161.25451505 -.00000039  00000+0  00000+0 0  9995
2 38356   0.0166 345.1336 0002982 103.0564  68.0604  1.00271799 50381
INTELSAT 20 (IS-20)     
1 38740U 12043A   26161.20636155 -.00000005  00000+0  00000+0 0  9990
2 38740   0.0138  66.7289 0001581  64.7509 269.9036  1.00259165 50672
